<?xml version="1.0" encoding="UTF-8"?>
<ndm xmlns:xsi="http://www.w3.org/2001/XMLSchema-instance" xsi:noNamespaceSchemaLocation="https://sanaregistry.org/r/ndmxml_unqualified/ndmxml-2.0.0-master-2.0.xsd">
<omm id="CCSDS_OMM_VERS" version="2.0">
<header><CREATION_DATE/><ORIGINATOR/></header><body><segment><metadata><OBJECT_NAME>ONEWEB-0194</OBJECT_NAME><OBJECT_ID>2021-031AD</OBJECT_ID><CENTER_NAME>EARTH</CENTER_NAME><REF_FRAME>TEME</REF_FRAME><TIME_SYSTEM>UTC</TIME_SYSTEM><MEAN_ELEMENT_THEORY>SGP4</MEAN_ELEMENT_THEORY></metadata><data><meanElements><EPOCH>2025-07-26T02:48:59.838336</EPOCH><MEAN_MOTION>13.14503302</MEAN_MOTION><ECCENTRICITY>.0002057</ECCENTRICITY><INCLINATION>87.9064</INCLINATION><RA_OF_ASC_NODE>354.5826</RA_OF_ASC_NODE><ARG_OF_PERICENTER>95.3735</ARG_OF_PERICENTER><MEAN_ANOMALY>264.7630</MEAN_ANOMALY></meanElements><tleParameters><EPHEMERIS_TYPE>0</EPHEMERIS_TYPE><CLASSIFICATION_TYPE>U</CLASSIFICATION_TYPE><NORAD_CAT_ID>48237</NORAD_CAT_ID><ELEMENT_SET_NO>999</ELEMENT_SET_NO><REV_AT_EPOCH>20552</REV_AT_EPOCH><BSTAR>-.27041E-3</BSTAR><MEAN_MOTION_DOT>-.87E-6</MEAN_MOTION_DOT><MEAN_MOTION_DDOT>0</MEAN_MOTION_DDOT></tleParameters></data></segment></body></omm>
<omm id="CCSDS_OMM_VERS" version="2.0">
<header><CREATION_DATE/><ORIGINATOR/></header><body><segment><metadata><OBJECT_NAME>ONEWEB-0193</OBJECT_NAME><OBJECT_ID>2021-031AE</OBJECT_ID><CENTER_NAME>EARTH</CENTER_NAME><REF_FRAME>TEME</REF_FRAME><TIME_SYSTEM>UTC</TIME_SYSTEM><MEAN_ELEMENT_THEORY>SGP4</MEAN_ELEMENT_THEORY></metadata><data><meanElements><EPOCH>2025-07-25T21:43:00.252192</EPOCH><MEAN_MOTION>13.14504474</MEAN_MOTION><ECCENTRICITY>.0001879</ECCENTRICITY><INCLINATION>87.9055</INCLINATION><RA_OF_ASC_NODE>354.6317</RA_OF_ASC_NODE><ARG_OF_PERICENTER>90.9060</ARG_OF_PERICENTER><MEAN_ANOMALY>269.2285</MEAN_ANOMALY></meanElements><tleParameters><EPHEMERIS_TYPE>0</EPHEMERIS_TYPE><CLASSIFICATION_TYPE>U</CLASSIFICATION_TYPE><NORAD_CAT_ID>48238</NORAD_CAT_ID><ELEMENT_SET_NO>999</ELEMENT_SET_NO><REV_AT_EPOCH>20544</REV_AT_EPOCH><BSTAR>-.63111E-3</BSTAR><MEAN_MOTION_DOT>-.221E-5</MEAN_MOTION_DOT><MEAN_MOTION_DDOT>0</MEAN_MOTION_DDOT></tleParameters></data></segment></body></omm>
<omm id="CCSDS_OMM_VERS" version="2.0">
<header><CREATION_DATE/><ORIGINATOR/></header><body><segment><metadata><OBJECT_NAME>ONEWEB-0191</OBJECT_NAME><OBJECT_ID>2021-031AF</OBJECT_ID><CENTER_NAME>EARTH</CENTER_NAME><REF_FRAME>TEME</REF_FRAME><TIME_SYSTEM>UTC</TIME_SYSTEM><MEAN_ELEMENT_THEORY>SGP4</MEAN_ELEMENT_THEORY></metadata><data><meanElements><EPOCH>2025-07-25T21:58:59.436480</EPOCH><MEAN_MOTION>13.14503705</MEAN_MOTION><ECCENTRICITY>.0002023</ECCENTRICITY><INCLINATION>87.9059</INCLINATION><RA_OF_ASC_NODE>354.6017</RA_OF_ASC_NODE><ARG_OF_PERICENTER>90.4161</ARG_OF_PERICENTER><MEAN_ANOMALY>269.7201</MEAN_ANOMALY></meanElements><tleParameters><EPHEMERIS_TYPE>0</EPHEMERIS_TYPE><CLASSIFICATION_TYPE>U</CLASSIFICATION_TYPE><NORAD_CAT_ID>48239</NORAD_CAT_ID><ELEMENT_SET_NO>999</ELEMENT_SET_NO><REV_AT_EPOCH>20530</REV_AT_EPOCH><BSTAR>-.12309E-3</BSTAR><MEAN_MOTION_DOT>-.33E-6</MEAN_MOTION_DOT><MEAN_MOTION_DDOT>0</MEAN_MOTION_DDOT></tleParameters></data></segment></body></omm>
<omm id="CCSDS_OMM_VERS" version="2.0">
<header><CREATION_DATE/><ORIGINATOR/></header><body><segment><metadata><OBJECT_NAME>ONEWEB-0195</OBJECT_NAME><OBJECT_ID>2021-031AG</OBJECT_ID><CENTER_NAME>EARTH</CENTER_NAME><REF_FRAME>TEME</REF_FRAME><TIME_SYSTEM>UTC</TIME_SYSTEM><MEAN_ELEMENT_THEORY>SGP4</MEAN_ELEMENT_THEORY></metadata><data><meanElements><EPOCH>2025-07-26T02:54:41.176224</EPOCH><MEAN_MOTION>13.14501638</MEAN_MOTION><ECCENTRICITY>.0001651</ECCENTRICITY><INCLINATION>87.9060</INCLINATION><RA_OF_ASC_NODE>354.5585</RA_OF_ASC_NODE><ARG_OF_PERICENTER>83.4147</ARG_OF_PERICENTER><MEAN_ANOMALY>276.7170</MEAN_ANOMALY></meanElements><tleParameters><EPHEMERIS_TYPE>0</EPHEMERIS_TYPE><CLASSIFICATION_TYPE>U</CLASSIFICATION_TYPE><NORAD_CAT_ID>48240</NORAD_CAT_ID><ELEMENT_SET_NO>999</ELEMENT_SET_NO><REV_AT_EPOCH>20531</REV_AT_EPOCH><BSTAR>-.40248E-3</BSTAR><MEAN_MOTION_DOT>-.136E-5</MEAN_MOTION_DOT><MEAN_MOTION_DDOT>0</MEAN_MOTION_DDOT></tleParameters></data></segment></body></omm>
<omm id="CCSDS_OMM_VERS" version="2.0">
<header><CREATION_DATE/><ORIGINATOR/></header><body><segment><metadata><OBJECT_NAME>ONEWEB-0201</OBJECT_NAME><OBJECT_ID>2021-031AH</OBJECT_ID><CENTER_NAME>EARTH</CENTER_NAME><REF_FRAME>TEME</REF_FRAME><TIME_SYSTEM>UTC</TIME_SYSTEM><MEAN_ELEMENT_THEORY>SGP4</MEAN_ELEMENT_THEORY></metadata><data><meanElements><EPOCH>2025-07-25T10:11:17.375424</EPOCH><MEAN_MOTION>13.14501389</MEAN_MOTION><ECCENTRICITY>.0001471</ECCENTRICITY><INCLINATION>87.9062</INCLINATION><RA_OF_ASC_NODE>354.7444</RA_OF_ASC_NODE><ARG_OF_PERICENTER>97.7762</ARG_OF_PERICENTER><MEAN_ANOMALY>262.3535</MEAN_ANOMALY></meanElements><tleParameters><EPHEMERIS_TYPE>0</EPHEMERIS_TYPE><CLASSIFICATION_TYPE>U</CLASSIFICATION_TYPE><NORAD_CAT_ID>48241</NORAD_CAT_ID><ELEMENT_SET_NO>999</ELEMENT_SET_NO><REV_AT_EPOCH>20545</REV_AT_EPOCH><BSTAR>-.2083E-3</BSTAR><MEAN_MOTION_DOT>-.64E-6</MEAN_MOTION_DOT><MEAN_MOTION_DDOT>0</MEAN_MOTION_DDOT></tleParameters></data></segment></body></omm>
<omm id="CCSDS_OMM_VERS" version="2.0">
<header><CREATION_DATE/><ORIGINATOR/></header><body><segment><metadata><OBJECT_NAME>ONEWEB-0207</OBJECT_NAME><OBJECT_ID>2021-031AJ</OBJECT_ID><CENTER_NAME>EARTH</CENTER_NAME><REF_FRAME>TEME</REF_FRAME><TIME_SYSTEM>UTC</TIME_SYSTEM><MEAN_ELEMENT_THEORY>SGP4</MEAN_ELEMENT_THEORY></metadata><data><meanElements><EPOCH>2025-07-25T22:29:48.926112</EPOCH><MEAN_MOTION>13.14502183</MEAN_MOTION><ECCENTRICITY>.0001619</ECCENTRICITY><INCLINATION>87.9060</INCLINATION><RA_OF_ASC_NODE>354.6028</RA_OF_ASC_NODE><ARG_OF_PERICENTER>101.0925</ARG_OF_PERICENTER><MEAN_ANOMALY>259.0386</MEAN_ANOMALY></meanElements><tleParameters><EPHEMERIS_TYPE>0</EPHEMERIS_TYPE><CLASSIFICATION_TYPE>U</CLASSIFICATION_TYPE><NORAD_CAT_ID>48242</NORAD_CAT_ID><ELEMENT_SET_NO>999</ELEMENT_SET_NO><REV_AT_EPOCH>20543</REV_AT_EPOCH><BSTAR>.52336E-3</BSTAR><MEAN_MOTION_DOT>.207E-5</MEAN_MOTION_DOT><MEAN_MOTION_DDOT>0</MEAN_MOTION_DDOT></tleParameters></data></segment></body></omm>
<omm id="CCSDS_OMM_VERS" version="2.0">
<header><CREATION_DATE/><ORIGINATOR/></header><body><segment><metadata><OBJECT_NAME>ONEWEB-0208</OBJECT_NAME><OBJECT_ID>2021-031AK</OBJECT_ID><CENTER_NAME>EARTH</CENTER_NAME><REF_FRAME>TEME</REF_FRAME><TIME_SYSTEM>UTC</TIME_SYSTEM><MEAN_ELEMENT_THEORY>SGP4</MEAN_ELEMENT_THEORY></metadata><data><meanElements><EPOCH>2025-07-26T03:32:22.357536</EPOCH><MEAN_MOTION>13.14503678</MEAN_MOTION><ECCENTRICITY>.000174</ECCENTRICITY><INCLINATION>87.9061</INCLINATION><RA_OF_ASC_NODE>354.5758</RA_OF_ASC_NODE><ARG_OF_PERICENTER>90.2070</ARG_OF_PERICENTER><MEAN_ANOMALY>269.9259</MEAN_ANOMALY></meanElements><tleParameters><EPHEMERIS_TYPE>0</EPHEMERIS_TYPE><CLASSIFICATION_TYPE>U</CLASSIFICATION_TYPE><NORAD_CAT_ID>48243</NORAD_CAT_ID><ELEMENT_SET_NO>999</ELEMENT_SET_NO><REV_AT_EPOCH>20547</REV_AT_EPOCH><BSTAR>-.133E-3</BSTAR><MEAN_MOTION_DOT>-.37E-6</MEAN_MOTION_DOT><MEAN_MOTION_DDOT>0</MEAN_MOTION_DDOT></tleParameters></data></segment></body></omm>
<omm id="CCSDS_OMM_VERS" version="2.0">
<header><CREATION_DATE/><ORIGINATOR/></header><body><segment><metadata><OBJECT_NAME>ONEWEB-0200</OBJECT_NAME><OBJECT_ID>2021-031AL</OBJECT_ID><CENTER_NAME>EARTH</CENTER_NAME><REF_FRAME>TEME</REF_FRAME><TIME_SYSTEM>UTC</TIME_SYSTEM><MEAN_ELEMENT_THEORY>SGP4</MEAN_ELEMENT_THEORY></metadata><data><meanElements><EPOCH>2025-07-25T10:13:21.674784</EPOCH><MEAN_MOTION>13.14504088</MEAN_MOTION><ECCENTRICITY>.0001742</ECCENTRICITY><INCLINATION>87.9060</INCLINATION><RA_OF_ASC_NODE>354.7106</RA_OF_ASC_NODE><ARG_OF_PERICENTER>92.6753</ARG_OF_PERICENTER><MEAN_ANOMALY>267.4576</MEAN_ANOMALY></meanElements><tleParameters><EPHEMERIS_TYPE>0</EPHEMERIS_TYPE><CLASSIFICATION_TYPE>U</CLASSIFICATION_TYPE><NORAD_CAT_ID>48244</NORAD_CAT_ID><ELEMENT_SET_NO>999</ELEMENT_SET_NO><REV_AT_EPOCH>20530</REV_AT_EPOCH><BSTAR>-.19251E-3</BSTAR><MEAN_MOTION_DOT>-.59E-6</MEAN_MOTION_DOT><MEAN_MOTION_DDOT>0</MEAN_MOTION_DDOT></tleParameters></data></segment></body></omm>
<omm id="CCSDS_OMM_VERS" version="2.0">
<header><CREATION_DATE/><ORIGINATOR/></header><body><segment><metadata><OBJECT_NAME>ONEWEB-0217</OBJECT_NAME><OBJECT_ID>2021-031AM</OBJECT_ID><CENTER_NAME>EARTH</CENTER_NAME><REF_FRAME>TEME</REF_FRAME><TIME_SYSTEM>UTC</TIME_SYSTEM><MEAN_ELEMENT_THEORY>SGP4</MEAN_ELEMENT_THEORY></metadata><data><meanElements><EPOCH>2025-07-26T03:02:41.484192</EPOCH><MEAN_MOTION>13.14503338</MEAN_MOTION><ECCENTRICITY>.0001761</ECCENTRICITY><INCLINATION>87.9060</INCLINATION><RA_OF_ASC_NODE>354.5559</RA_OF_ASC_NODE><ARG_OF_PERICENTER>85.9508</ARG_OF_PERICENTER><MEAN_ANOMALY>274.1823</MEAN_ANOMALY></meanElements><tleParameters><EPHEMERIS_TYPE>0</EPHEMERIS_TYPE><CLASSIFICATION_TYPE>U</CLASSIFICATION_TYPE><NORAD_CAT_ID>48245</NORAD_CAT_ID><ELEMENT_SET_NO>999</ELEMENT_SET_NO><REV_AT_EPOCH>20535</REV_AT_EPOCH><BSTAR>-.6576E-3</BSTAR><MEAN_MOTION_DOT>-.231E-5</MEAN_MOTION_DOT><MEAN_MOTION_DDOT>0</MEAN_MOTION_DDOT></tleParameters></data></segment></body></omm>

</ndm>
